[{"OBJECT_NAME":"SNIPE 2","OBJECT_ID":"2023-072C","EPOCH":"2026-03-09T11:21:04.371264","MEAN_MOTION":15.41694724,"ECCENTRICITY":0.00049327,"INCLINATION":97.5357,"RA_OF_ASC_NODE":273.9779,"ARG_OF_PERICENTER":6.2338,"MEAN_ANOMALY":353.8968,"EPHEMERIS_TYPE":0,"CLASSIFICATION_TYPE":"U","NORAD_CAT_ID":56745,"ELEMENT_SET_NO":999,"REV_AT_EPOCH":15485,"BSTAR":0.00072334045,"MEAN_MOTION_DOT":0.00030525,"MEAN_MOTION_DDOT":0},{"OBJECT_NAME":"PEGASUS DEB","OBJECT_ID":"1994-029AG","EPOCH":"2026-03-09T11:16:42.963744","MEAN_MOTION":15.37636263,"ECCENTRICITY":0.0031206,"INCLINATION":82.0362,"RA_OF_ASC_NODE":86.2933,"ARG_OF_PERICENTER":155.6019,"MEAN_ANOMALY":204.671,"EPHEMERIS_TYPE":0,"CLASSIFICATION_TYPE":"U","NORAD_CAT_ID":23986,"ELEMENT_SET_NO":999,"REV_AT_EPOCH":61542,"BSTAR":0.00061808813,"MEAN_MOTION_DOT":0.00023279,"MEAN_MOTION_DDOT":0}]
